{
  "norad_id": 67997,
  "name": "STARLINK-36994",
  "history": [
    {
      "epoch": "2026-05-03T15:43:10.551072Z",
      "apogee_km": 483.79076236057244,
      "perigee_km": 482.2867926301451,
      "latitude_deg": -1.788141894987206e-05,
      "longitude_deg": 0.8185606126529772,
      "height_km": 482.983891887962,
      "semi_major_axis_km": 6861.1757774953585,
      "eccentricity": 0.0001096,
      "inclination_deg": 43.0018,
      "raan_deg": 98.1681,
      "arg_perigee_deg": 257.0503,
      "mean_anomaly_deg": 103.0226,
      "mean_motion_rev_day": 15.27583446
    }
  ]
}